{"type": "FeatureCollection", "features": [ {"type": "Feature", "properties": {"norad_id": 37057, "name": "FENGYUN 1C DEB", "group": "fengyun-1c-debris", "lat": -80.885622457002, "lon": 71.97621314730387, "alt_km": 980.2265853381796, "timestamp": "2025-12-04T13:52:00.731503+00:00", "meta": {"OBJECT_NAME": "FENGYUN 1C DEB", "OBJECT_ID": "1999-025EER", "EPOCH": "2025-11-29T19:03:44.604864", "MEAN_MOTION": 13.96084171, "ECCENTRICITY": 0.02847546, "INCLINATION": 98.9242, "RA_OF_ASC_NODE": 348.9836, "ARG_OF_PERICENTER": 175.0613, "MEAN_ANOMALY": 185.3468, "EPHEMERIS_TYPE": 0, "CLASSIFICATION_TYPE": "U", "NORAD_CAT_ID": 37057, "ELEMENT_SET_NO": 999, "REV_AT_EPOCH": 63417, "BSTAR": 7.4994396e-05, "MEAN_MOTION_DOT": 1.02e-06, "MEAN_MOTION_DDOT": 0}, "tle": {"line1": "1 37057U 99025EER 25333.79426626  .00000102  00000+0  74994-4 0  9994", "line2": "2 37057  98.9242 348.9836 0284754 175.0613 185.3468 13.96084171634178"}}, "geometry": {"type": "Point", "coordinates": [71.97621314730387, -80.885622457002]}}, {"type": "Feature", "properties": {"norad_id": 37061, "name": "FENGYUN 1C DEB", "group": "fengyun-1c-debris", "lat": 24.719741732302815, "lon": -131.43482187007524, "alt_km": 1562.954627210377, "timestamp": "2025-12-04T13:52:00.731513+00:00", "meta": {"OBJECT_NAME": "FENGYUN 1C DEB", "OBJECT_ID": "1999-025EEV", "EPOCH": "2025-12-01T10:10:50.606976", "MEAN_MOTION": 13.13334717, "ECCENTRICITY": 0.08033625, "INCLINATION": 98.0872, "RA_OF_ASC_NODE": 42.3779, "ARG_OF_PERICENTER": 33.6002, "MEAN_ANOMALY": 331.3499, "EPHEMERIS_TYPE": 0, "CLASSIFICATION_TYPE": "U", "NORAD_CAT_ID": 37061, "ELEMENT_SET_NO": 999, "REV_AT_EPOCH": 8007, "BSTAR": 0.0024469961, "MEAN_MOTION_DOT": 4.753e-05, "MEAN_MOTION_DDOT": 0}, "tle": {"line1": "1 37061U 99025EEV 25335.42419684  .00004753  00000+0  24470-2 0  9995", "line2": "2 37061  98.0872  42.3779 0803362  33.6002 331.3499 13.13334717 80071"}}, "geometry": {"type": "Point", "coordinates": [-131.43482187007524, 24.719741732302815]}}, {"type": "Feature", "properties": {"norad_id": 37064, "name": "FENGYUN 1C DEB", "group": "fengyun-1c-debris", "lat": -69.63306899576628, "lon": 155.7124107517158, "alt_km": 920.5155037538925, "timestamp": "2025-12-04T13:52:00.731523+00:00", "meta": {"OBJECT_NAME": "FENGYUN 1C DEB", "OBJECT_ID": "1999-025EEY", "EPOCH": "2025-11-25T16:29:09.460320", "MEAN_MOTION": 14.15612933, "ECCENTRICITY": 0.01070067, "INCLINATION": 98.9095, "RA_OF_ASC_NODE": 121.83, "ARG_OF_PERICENTER": 150.7609, "MEAN_ANOMALY": 209.9612, "EPHEMERIS_TYPE": 0, "CLASSIFICATION_TYPE": "U", "NORAD_CAT_ID": 37064, "ELEMENT_SET_NO": 999, "REV_AT_EPOCH": 81294, "BSTAR": 0.0049331234, "MEAN_MOTION_DOT": 0.00010179, "MEAN_MOTION_DDOT": 0}, "tle": {"line1": "1 37064U 99025EEY 25329.68691505  .00010179  00000+0  49331-2 0  9995", "line2": "2 37064  98.9095 121.8300 0107006 150.7609 209.9612 14.15612933812947"}}, "geometry": {"type": "Point", "coordinates": [155.7124107517158, -69.63306899576628]}}, {"type": "Feature", "properties": {"norad_id": 37065, "name": "FENGYUN 1C DEB", "group": "fengyun-1c-debris", "lat": 37.509576422137876, "lon": 140.04622597320292, "alt_km": 1200.4598717652061, "timestamp": "2025-12-04T13:52:00.731533+00:00", "meta": {"OBJECT_NAME": "FENGYUN 1C DEB", "OBJECT_ID": "1999-025EEZ", "EPOCH": "2025-11-29T04:41:54.899520", "MEAN_MOTION": 13.59013412, "ECCENTRICITY": 0.0298251, "INCLINATION": 103.2865, "RA_OF_ASC_NODE": 143.2258, "ARG_OF_PERICENTER": 271.3733, "MEAN_ANOMALY": 85.3247, "EPHEMERIS_TYPE": 0, "CLASSIFICATION_TYPE": "U", "NORAD_CAT_ID": 37065, "ELEMENT_SET_NO": 999, "REV_AT_EPOCH": 22018, "BSTAR": 0.0027486644, "MEAN_MOTION_DOT": 2.63e-05, "MEAN_MOTION_DDOT": 0}, "tle": {"line1": "1 37065U 99025EEZ 25333.19577430  .00002630  00000+0  27487-2 0  9998", "line2": "2 37065 103.2865 143.2258 0298251 271.3733  85.3247 13.59013412220187"}}, "geometry": {"type": "Point", "coordinates": [140.04622597320292, 37.509576422137876]}}, {"type": "Feature", "properties": {"norad_id": 37067, "name": "FENGYUN 1C DEB", "group": "fengyun-1c-debris", "lat": 70.8027177715893, "lon": -109.08692204660244, "alt_km": 830.5753873276335, "timestamp": "2025-12-04T13:52:00.731544+00:00", "meta": {"OBJECT_NAME": "FENGYUN 1C DEB", "OBJECT_ID": "1999-025EFB", "EPOCH": "2025-12-01T01:28:45.685632", "MEAN_MOTION": 14.00126048, "ECCENTRICITY": 0.01543927, "INCLINATION": 99.5381, "RA_OF_ASC_NODE": 276.1211, "ARG_OF_PERICENTER": 143.8371, "MEAN_ANOMALY": 217.3351, "EPHEMERIS_TYPE": 0, "CLASSIFICATION_TYPE": "U", "NORAD_CAT_ID": 37067, "ELEMENT_SET_NO": 999, "REV_AT_EPOCH": 57245, "BSTAR": 0.0033441355, "MEAN_MOTION_DOT": 5.422e-05, "MEAN_MOTION_DDOT": 0}, "tle": {"line1": "1 37067U 99025EFB 25335.06163988  .00005422  00000+0  33441-2 0  9996", "line2": "2 37067  99.5381 276.1211 0154392 143.8371 217.3351 14.00126048572452"}}, "geometry": {"type": "Point", "coordinates": [-109.08692204660244, 70.8027177715893]}}, {"type": "Feature", "properties": {"norad_id": 37069, "name": "FENGYUN 1C DEB", "group": "fengyun-1c-debris", "lat": -6.117586903632165, "lon": -46.95656644539701, "alt_km": 1027.5221372888682, "timestamp": "2025-12-04T13:52:00.731554+00:00", "meta": {"OBJECT_NAME": "FENGYUN 1C DEB", "OBJECT_ID": "1999-025EFD", "EPOCH": "2025-12-04T04:55:22.231488", "MEAN_MOTION": 13.37917724, "ECCENTRICITY": 0.04258466, "INCLINATION": 95.8476, "RA_OF_ASC_NODE": 312.1986, "ARG_OF_PERICENTER": 279.5864, "MEAN_ANOMALY": 75.7415, "EPHEMERIS_TYPE": 0, "CLASSIFICATION_TYPE": "U", "NORAD_CAT_ID": 37069, "ELEMENT_SET_NO": 999, "REV_AT_EPOCH": 87594, "BSTAR": 0.0066764401, "MEAN_MOTION_DOT": 5.926e-05, "MEAN_MOTION_DDOT": 0}, "tle": {"line1": "1 37069U 99025EFD 25338.20511842  .00005926  00000+0  66764-2 0  9996", "line2": "2 37069  95.8476 312.1986 0425846 279.5864  75.7415 13.37917724875942"}}, "geometry": {"type": "Point", "coordinates": [-46.95656644539701, -6.117586903632165]}}, {"type": "Feature", "properties": {"norad_id": 37077, "name": "FENGYUN 1C DEB", "group": "fengyun-1c-debris", "lat": 53.94294799880556, "lon": -114.12619215533046, "alt_km": 794.955661471542, "timestamp": "2025-12-04T13:52:00.731564+00:00", "meta": {"OBJECT_NAME": "FENGYUN 1C DEB", "OBJECT_ID": "1999-025EFM", "EPOCH": "2025-12-03T03:58:01.005024", "MEAN_MOTION": 14.41158093, "ECCENTRICITY": 0.00958026, "INCLINATION": 99.0355, "RA_OF_ASC_NODE": 51.7572, "ARG_OF_PERICENTER": 357.0987, "MEAN_ANOMALY": 2.9633, "EPHEMERIS_TYPE": 0, "CLASSIFICATION_TYPE": "U", "NORAD_CAT_ID": 37077, "ELEMENT_SET_NO": 999, "REV_AT_EPOCH": 84817, "BSTAR": 0.00042904421, "MEAN_MOTION_DOT": 1.409e-05, "MEAN_MOTION_DDOT": 0}, "tle": {"line1": "1 37077U 99025EFM 25337.16528941  .00001409  00000+0  42904-3 0  9990", "line2": "2 37077  99.0355  51.7572 0095802 357.0987   2.9633 14.41158093848174"}}, "geometry": {"type": "Point", "coordinates": [-114.12619215533046, 53.94294799880556]}}, {"type": "Feature", "properties": {"norad_id": 37079, "name": "FENGYUN 1C DEB", "group": "fengyun-1c-debris", "lat": 28.336588313188436, "lon": -62.189674128250516, "alt_km": 685.1709649462164, "timestamp": "2025-12-04T13:52:00.731573+00:00", "meta": {"OBJECT_NAME": "FENGYUN 1C DEB", "OBJECT_ID": "1999-025EFP", "EPOCH": "2025-12-02T15:06:01.221984", "MEAN_MOTION": 14.59266207, "ECCENTRICITY": 0.00129922, "INCLINATION": 98.8575, "RA_OF_ASC_NODE": 110.9085, "ARG_OF_PERICENTER": 174.2957, "MEAN_ANOMALY": 185.8391, "EPHEMERIS_TYPE": 0, "CLASSIFICATION_TYPE": "U", "NORAD_CAT_ID": 37079, "ELEMENT_SET_NO": 999, "REV_AT_EPOCH": 64468, "BSTAR": 0.0051292325, "MEAN_MOTION_DOT": 0.00024282, "MEAN_MOTION_DDOT": 0}, "tle": {"line1": "1 37079U 99025EFP 25336.62918081  .00024282  00000+0  51292-2 0  9993", "line2": "2 37079  98.8575 110.9085 0012992 174.2957 185.8391 14.59266207644687"}}, "geometry": {"type": "Point", "coordinates": [-62.189674128250516, 28.336588313188436]}}, {"type": "Feature", "properties": {"norad_id": 37081, "name": "FENGYUN 1C DEB", "group": "fengyun-1c-debris", "lat": -66.19756467939752, "lon": -69.27316164374322, "alt_km": 959.8119465649397, "timestamp": "2025-12-04T13:52:00.731583+00:00", "meta": {"OBJECT_NAME": "FENGYUN 1C DEB", "OBJECT_ID": "1999-025EFR", "EPOCH": "2025-12-03T16:18:24.791040", "MEAN_MOTION": 14.13685496, "ECCENTRICITY": 0.02637843, "INCLINATION": 98.7078, "RA_OF_ASC_NODE": 130.1819, "ARG_OF_PERICENTER": 15.2765, "MEAN_ANOMALY": 345.6182, "EPHEMERIS_TYPE": 0, "CLASSIFICATION_TYPE": "U", "NORAD_CAT_ID": 37081, "ELEMENT_SET_NO": 999, "REV_AT_EPOCH": 58446, "BSTAR": 0.0043372036, "MEAN_MOTION_DOT": 0.00011399, "MEAN_MOTION_DDOT": 0}, "tle": {"line1": "1 37081U 99025EFR 25337.67945360  .00011399  00000+0  43372-2 0  9997", "line2": "2 37081  98.7078 130.1819 0263784  15.2765 345.6182 14.13685496584462"}}, "geometry": {"type": "Point", "coordinates": [-69.27316164374322, -66.19756467939752]}}, {"type": "Feature", "properties": {"norad_id": 37400, "name": "FENGYUN 1C DEB", "group": "fengyun-1c-debris", "lat": 57.76060435018636, "lon": 162.39161991387803, "alt_km": 1052.0857186962412, "timestamp": "2025-12-04T13:52:00.731593+00:00", "meta": {"OBJECT_NAME": "FENGYUN 1C DEB", "OBJECT_ID": "1999-025EFS", "EPOCH": "2025-11-30T00:22:53.964768", "MEAN_MOTION": 13.63619747, "ECCENTRICITY": 0.0401354, "INCLINATION": 98.8385, "RA_OF_ASC_NODE": 172.516, "ARG_OF_PERICENTER": 169.9422, "MEAN_ANOMALY": 191.0066, "EPHEMERIS_TYPE": 0, "CLASSIFICATION_TYPE": "U", "NORAD_CAT_ID": 37400, "ELEMENT_SET_NO": 999, "REV_AT_EPOCH": 80020, "BSTAR": 0.00054446719, "MEAN_MOTION_DOT": 7.06e-06, "MEAN_MOTION_DDOT": 0}, "tle": {"line1": "1 37400U 99025EFS 25334.01590237  .00000706  00000+0  54447-3 0  9992", "line2": "2 37400  98.8385 172.5160 0401354 169.9422 191.0066 13.63619747800209"}}, "geometry": {"type": "Point", "coordinates": [162.39161991387803, 57.76060435018636]}}]}